<?xml version='1.0' encoding='utf-8'?>
<kml xmlns="http://www.opengis.net/kml/2.2"><Document><name>Hoàn công + PDF - GIS tổng hợp</name><Style id="project"><LineStyle><color>ff0000ff</color><width>4</width></LineStyle><PolyStyle><color>120000ff</color></PolyStyle></Style>
<Style id="forest"><LineStyle><color>ff008000</color><width>2</width></LineStyle><PolyStyle><color>5500aa00</color></PolyStyle></Style>
<Style id="old"><LineStyle><color>ff00ffff</color><width>2</width></LineStyle><PolyStyle><color>6600ffff</color></PolyStyle></Style>
<Style id="new"><LineStyle><color>ff00a5ff</color><width>2</width></LineStyle><PolyStyle><color>6600a5ff</color></PolyStyle></Style>
<Style id="other"><LineStyle><color>ffff0000</color><width>1</width></LineStyle><PolyStyle><color>22000000</color></PolyStyle></Style><Folder><name>DXF - Ranh giới dự án</name><Placemark><name>Ranh giới dự án - DXF</name><description>Nguồn: HOANCONG-2024-2025_TAN-30-9-2026(1).dxf</description><styleUrl>#project</styleUrl><Polygon><outerBoundaryIs><LinearRing><coordinates>107.7996117352,10.8154545378,0107.04856107</coordinates></LinearRing></outerBoundaryIs></Polygon></Placemark></Folder><Folder><name>DXF - Polygon hoàn công &gt; 0,1 ha</name><Placemark><name>DXF polygon 80</name><description>DXF entity 80; diện tích hình học thô xấp xỉ 2.7740 ha; phân loại tham chiếu theo màu PDF: Đất trảng đồi/suối/G.T.</description><styleUrl>#other</styleUrl><Polygon><outerBoundaryIs><LinearRing><coordinates>107.7986376665,10.8285678732,0107.04865618</coordinates></LinearRing></outerBoundaryIs></Polygon></Placemark><Placemark><name>DXF polygon 132</name><description>DXF entity 132; diện tích hình học thô xấp xỉ 1.0804 ha; phân loại tham chiếu theo màu PDF: Tràm 2022-2025.</description><styleUrl>#forest</styleUrl><Polygon><outerBoundaryIs><LinearRing><coordinates>107.7988068565,10.8296556428,0107.04881645</coordinates></LinearRing></outerBoundaryIs></Polygon></Placemark><Placemark><name>DXF polygon 178</name><description>DXF entity 178; diện tích hình học thô xấp xỉ 0.7683 ha; phân loại tham chiếu theo màu PDF: Tràm 2022-2025.</description><styleUrl>#forest</styleUrl><Polygon><outerBoundaryIs><LinearRing><coordinates>107.7986227766,10.8297393228,0107.04862351</coordinates></LinearRing></outerBoundaryIs></Polygon></Placemark><Placemark><name>DXF polygon 211</name><description>DXF entity 211; diện tích hình học thô xấp xỉ 0.6223 ha; phân loại tham chiếu theo màu PDF: Tràm 2022-2025.</description><styleUrl>#forest</styleUrl><Polygon><outerBoundaryIs><LinearRing><coordinates>107.8146396995,10.8139319273,0107.06464938</coordinates></LinearRing></outerBoundaryIs></Polygon></Placemark><Placemark><name>DXF polygon 214</name><description>DXF entity 214; diện tích hình học thô xấp xỉ 2.0082 ha; phân loại tham chiếu theo màu PDF: Đất trảng đồi/suối/G.T.</description><styleUrl>#other</styleUrl><Polygon><outerBoundaryIs><LinearRing><coordinates>107.8102534510,10.8112183986,0107.06025391</coordinates></LinearRing></outerBoundaryIs></Polygon></Placemark><Placemark><name>DXF polygon 246</name><description>DXF entity 246; diện tích hình học thô xấp xỉ 0.6603 ha; phân loại tham chiếu theo màu PDF: Tràm 2022-2025.</description><styleUrl>#forest</styleUrl><Polygon><outerBoundaryIs><LinearRing><coordinates>107.8175710287,10.8170149960,0107.06753437</coordinates></LinearRing></outerBoundaryIs></Polygon></Placemark><Placemark><name>DXF polygon 247</name><description>DXF entity 247; diện tích hình học thô xấp xỉ 9.0606 ha; phân loại tham chiếu theo màu PDF: Tràm 2022-2025.</description><styleUrl>#forest</styleUrl><Polygon><outerBoundaryIs><LinearRing><coordinates>107.8125976495,10.8032389313,0107.06257970</coordinates></LinearRing></outerBoundaryIs></Polygon></Placemark><Placemark><name>DXF polygon 292</name><description>DXF entity 292; diện tích hình học thô xấp xỉ 12.8753 ha; phân loại tham chiếu theo màu PDF: Tràm 2022-2025.</description><styleUrl>#forest</styleUrl><Polygon><outerBoundaryIs><LinearRing><coordinates>107.7947023855,10.7951118754,0107.04469364</coordinates></LinearRing></outerBoundaryIs></Polygon></Placemark><Placemark><name>DXF polygon 352</name><description>DXF entity 352; diện tích hình học thô xấp xỉ 0.2695 ha; phân loại tham chiếu theo màu PDF: Tràm 2022-2025.</description><styleUrl>#forest</styleUrl><Polygon><outerBoundaryIs><LinearRing><coordinates>107.8080417224,10.8203587455,0107.05805139</coordinates></LinearRing></outerBoundaryIs></Polygon></Placemark><Placemark><name>DXF polygon 392</name><description>DXF entity 392; diện tích hình học thô xấp xỉ 0.6839 ha; phân loại tham chiếu theo màu PDF: Tràm 2022-2025.</description><styleUrl>#forest</styleUrl><Polygon><outerBoundaryIs><LinearRing><coordinates>107.8113047612,10.8204146852,0107.06126832</coordinates></LinearRing></outerBoundaryIs></Polygon></Placemark><Placemark><name>DXF polygon 451</name><description>DXF entity 451; diện tích hình học thô xấp xỉ 1.9347 ha; phân loại tham chiếu theo màu PDF: Tràm 2022-2025.</description><styleUrl>#forest</styleUrl><Polygon><outerBoundaryIs><LinearRing><coordinates>107.8118736110,10.8195731355,0107.06189256</coordinates></LinearRing></outerBoundaryIs></Polygon></Placemark><Placemark><name>DXF polygon 541</name><description>DXF entity 541; diện tích hình học thô xấp xỉ 0.8109 ha; phân loại tham chiếu theo màu PDF: Tràm 2022-2025.</description><styleUrl>#forest</styleUrl><Polygon><outerBoundaryIs><LinearRing><coordinates>107.8100417917,10.8203282854,0107.06005146</coordinates></LinearRing></outerBoundaryIs></Polygon></Placemark><Placemark><name>DXF polygon 616</name><description>DXF entity 616; diện tích hình học thô xấp xỉ 3.9169 ha; phân loại tham chiếu theo màu PDF: Tràm 2022-2025.</description><styleUrl>#forest</styleUrl><Polygon><outerBoundaryIs><LinearRing><coordinates>107.8021055544,10.8171803170,0107.05211536</coordinates></LinearRing></outerBoundaryIs></Polygon></Placemark><Placemark><name>DXF polygon 699</name><description>DXF entity 699; diện tích hình học thô xấp xỉ 0.7788 ha; phân loại tham chiếu theo màu PDF: Tràm 2022-2025.</description><styleUrl>#forest</styleUrl><Polygon><outerBoundaryIs><LinearRing><coordinates>107.8015578547,10.8181610967,0107.05156512</coordinates></LinearRing></outerBoundaryIs></Polygon></Placemark><Placemark><name>DXF polygon 768</name><description>DXF entity 768; diện tích hình học thô xấp xỉ 0.7581 ha; phân loại tham chiếu theo màu PDF: Đất lấn chiếm mới.</description><styleUrl>#new</styleUrl><Polygon><outerBoundaryIs><LinearRing><coordinates>107.7995553552,10.8151099480,0107.04957430</coordinates></LinearRing></outerBoundaryIs></Polygon></Placemark><Placemark><name>DXF polygon 835</name><description>DXF entity 835; diện tích hình học thô xấp xỉ 0.5958 ha; phân loại tham chiếu theo màu PDF: Đất lấn chiếm KL 260.</description><styleUrl>#old</styleUrl><Polygon><outerBoundaryIs><LinearRing><coordinates>107.8079079922,10.8157836171,0107.05788996</coordinates></LinearRing></outerBoundaryIs></Polygon></Placemark><Placemark><name>DXF polygon 1122</name><description>DXF entity 1122; diện tích hình học thô xấp xỉ 10.4675 ha; phân loại tham chiếu theo màu PDF: Tràm 2022-2025.</description><styleUrl>#forest</styleUrl><Polygon><outerBoundaryIs><LinearRing><coordinates>107.8025296542,10.8172393970,0107.05250249</coordinates></LinearRing></outerBoundaryIs></Polygon></Placemark><Placemark><name>DXF polygon 1123</name><description>DXF entity 1123; diện tích hình học thô xấp xỉ 11.1054 ha; phân loại tham chiếu theo màu PDF: Tràm 2022-2025.</description><styleUrl>#forest</styleUrl><Polygon><outerBoundaryIs><LinearRing><coordinates>107.8120728304,10.8127961679,0107.06222260</coordinates></LinearRing></outerBoundaryIs></Polygon></Placemark><Placemark><name>DXF polygon 1410</name><description>DXF entity 1410; diện tích hình học thô xấp xỉ 12.9080 ha; phân loại tham chiếu theo màu PDF: Tràm 2022-2025.</description><styleUrl>#forest</styleUrl><Polygon><outerBoundaryIs><LinearRing><coordinates>107.8129488501,10.8125606679,0107.06295845</coordinates></LinearRing></outerBoundaryIs></Polygon></Placemark><Placemark><name>DXF polygon 1411</name><description>DXF entity 1411; diện tích hình học thô xấp xỉ 12.3203 ha; phân loại tham chiếu theo màu PDF: Tràm 2022-2025.</description><styleUrl>#forest</styleUrl><Polygon><outerBoundaryIs><LinearRing><coordinates>107.8075363116,10.8057537607,0107.05755511</coordinates></LinearRing></outerBoundaryIs></Polygon></Placemark><Placemark><name>DXF polygon 1461</name><description>DXF entity 1461; diện tích hình học thô xấp xỉ 1.1344 ha; phân loại tham chiếu theo màu PDF: Tràm 2022-2025.</description><styleUrl>#forest</styleUrl><Polygon><outerBoundaryIs><LinearRing><coordinates>107.8118713309,10.8188103958,0107.06188092</coordinates></LinearRing></outerBoundaryIs></Polygon></Placemark><Placemark><name>DXF polygon 1506</name><description>DXF entity 1506; diện tích hình học thô xấp xỉ 1.4203 ha; phân loại tham chiếu theo màu PDF: Tràm 2022-2025.</description><styleUrl>#forest</styleUrl><Polygon><outerBoundaryIs><LinearRing><coordinates>107.8118438409,10.8188833658,0107.06185359</coordinates></LinearRing></outerBoundaryIs></Polygon></Placemark><Placemark><name>DXF polygon 1530</name><description>DXF entity 1530; diện tích hình học thô xấp xỉ 0.5765 ha; phân loại tham chiếu theo màu PDF: Tràm 2022-2025.</description><styleUrl>#forest</styleUrl><Polygon><outerBoundaryIs><LinearRing><coordinates>107.8021015943,10.8158727975,0107.05212046</coordinates></LinearRing></outerBoundaryIs></Polygon></Placemark><Placemark><name>DXF polygon 1531</name><description>DXF entity 1531; diện tích hình học thô xấp xỉ 13.6330 ha; phân loại tham chiếu theo màu PDF: Tràm 2022-2025.</description><styleUrl>#forest</styleUrl><Polygon><outerBoundaryIs><LinearRing><coordinates>107.8076203816,10.8061524506,0107.05767616</coordinates></LinearRing></outerBoundaryIs></Polygon></Placemark><Placemark><name>DXF polygon 1532</name><description>DXF entity 1532; diện tích hình học thô xấp xỉ 12.7541 ha; phân loại tham chiếu theo màu PDF: Tràm 2022-2025.</description><styleUrl>#forest</styleUrl><Polygon><outerBoundaryIs><LinearRing><coordinates>107.8026500131,10.8022463623,0107.05266917</coordinates></LinearRing></outerBoundaryIs></Polygon></Placemark><Placemark><name>DXF polygon 1533</name><description>DXF entity 1533; diện tích hình học thô xấp xỉ 1.5566 ha; phân loại tham chiếu theo màu PDF: Đất lấn chiếm KL 260.</description><styleUrl>#old</styleUrl><Polygon><outerBoundaryIs><LinearRing><coordinates>107.8011988738,10.8039234918,0107.05120889</coordinates></LinearRing></outerBoundaryIs></Polygon></Placemark><Placemark><name>DXF polygon 1534</name><description>DXF entity 1534; diện tích hình học thô xấp xỉ 1.3939 ha; phân loại tham chiếu theo màu PDF: Tràm 2022-2025.</description><styleUrl>#forest</styleUrl><Polygon><outerBoundaryIs><LinearRing><coordinates>107.7924981765,10.7976777147,0107.04261860</coordinates></LinearRing></outerBoundaryIs></Polygon></Placemark><Placemark><name>DXF polygon 1535</name><description>DXF entity 1535; diện tích hình học thô xấp xỉ 13.1467 ha; phân loại tham chiếu theo màu PDF: Tràm 2022-2025.</description><styleUrl>#forest</styleUrl><Polygon><outerBoundaryIs><LinearRing><coordinates>107.7934432461,10.7962874851,0107.04343435</coordinates></LinearRing></outerBoundaryIs></Polygon></Placemark><Placemark><name>DXF polygon 1536</name><description>DXF entity 1536; diện tích hình học thô xấp xỉ 8.6861 ha; phân loại tham chiếu theo màu PDF: Đất trảng đồi/suối/G.T.</description><styleUrl>#other</styleUrl><Polygon><outerBoundaryIs><LinearRing><coordinates>107.7948857454,10.7947829856,0107.04492296</coordinates></LinearRing></outerBoundaryIs></Polygon></Placemark><Placemark><name>DXF polygon 1537</name><description>DXF entity 1537; diện tích hình học thô xấp xỉ 7.1597 ha; phân loại tham chiếu theo màu PDF: Tràm 2022-2025.</description><styleUrl>#forest</styleUrl><Polygon><outerBoundaryIs><LinearRing><coordinates>107.7940965658,10.7959446452,0107.04411537</coordinates></LinearRing></outerBoundaryIs></Polygon></Placemark><Placemark><name>DXF polygon 1538</name><description>DXF entity 1538; diện tích hình học thô xấp xỉ 1.0719 ha; phân loại tham chiếu theo màu PDF: Đất trảng đồi/suối/G.T.</description><styleUrl>#other</styleUrl><Polygon><outerBoundaryIs><LinearRing><coordinates>107.7913294863,10.7890273679,0107.04132066</coordinates></LinearRing></outerBoundaryIs></Polygon></Placemark><Placemark><name>DXF polygon 1539</name><description>DXF entity 1539; diện tích hình học thô xấp xỉ 1.8806 ha; phân loại tham chiếu theo màu PDF: Tràm 2022-2025.</description><styleUrl>#forest</styleUrl><Polygon><outerBoundaryIs><LinearRing><coordinates>107.7979604842,10.7936244657,0107.04797015</coordinates></LinearRing></outerBoundaryIs></Polygon></Placemark><Placemark><name>DXF polygon 1540</name><description>DXF entity 1540; diện tích hình học thô xấp xỉ 0.4858 ha; phân loại tham chiếu theo màu PDF: Tràm 2022-2025.</description><styleUrl>#forest</styleUrl><Polygon><outerBoundaryIs><LinearRing><coordinates>107.7968533646,10.7932457360,0107.04686303</coordinates></LinearRing></outerBoundaryIs></Polygon></Placemark><Placemark><name>DXF polygon 1541</name><description>DXF entity 1541; diện tích hình học thô xấp xỉ 1.7191 ha; phân loại tham chiếu theo màu PDF: Tràm 2022-2025.</description><styleUrl>#forest</styleUrl><Polygon><outerBoundaryIs><LinearRing><coordinates>107.7963970247,10.7916614266,0107.04640669</coordinates></LinearRing></outerBoundaryIs></Polygon></Placemark><Placemark><name>DXF polygon 1542</name><description>DXF entity 1542; diện tích hình học thô xấp xỉ 0.3994 ha; phân loại tham chiếu theo màu PDF: Tràm 2022-2025.</description><styleUrl>#forest</styleUrl><Polygon><outerBoundaryIs><LinearRing><coordinates>107.7939806055,10.7910877669,0107.04399948</coordinates></LinearRing></outerBoundaryIs></Polygon></Placemark><Placemark><name>DXF polygon 1543</name><description>DXF entity 1543; diện tích hình học thô xấp xỉ 0.5199 ha; phân loại tham chiếu theo màu PDF: Tràm 2022-2025.</description><styleUrl>#forest</styleUrl><Polygon><outerBoundaryIs><LinearRing><coordinates>107.7927278060,10.7912827070,0107.04273747</coordinates></LinearRing></outerBoundaryIs></Polygon></Placemark><Placemark><name>DXF polygon 1544</name><description>DXF entity 1544; diện tích hình học thô xấp xỉ 4.6152 ha; phân loại tham chiếu theo màu PDF: Tràm 2022-2025.</description><styleUrl>#forest</styleUrl><Polygon><outerBoundaryIs><LinearRing><coordinates>107.7931401358,10.7904882572,0107.04314980</coordinates></LinearRing></outerBoundaryIs></Polygon></Placemark><Placemark><name>DXF polygon 1545</name><description>DXF entity 1545; diện tích hình học thô xấp xỉ 1.0204 ha; phân loại tham chiếu theo màu PDF: Tràm 2022-2025.</description><styleUrl>#forest</styleUrl><Polygon><outerBoundaryIs><LinearRing><coordinates>107.8007504334,10.7958376048,0107.05078772</coordinates></LinearRing></outerBoundaryIs></Polygon></Placemark><Placemark><name>DXF polygon 1546</name><description>DXF entity 1546; diện tích hình học thô xấp xỉ 1.1708 ha; phân loại tham chiếu theo màu PDF: Tràm 2022-2025.</description><styleUrl>#forest</styleUrl><Polygon><outerBoundaryIs><LinearRing><coordinates>107.8000612936,10.7953576250,0107.05017718</coordinates></LinearRing></outerBoundaryIs></Polygon></Placemark><Placemark><name>DXF polygon 1547</name><description>DXF entity 1547; diện tích hình học thô xấp xỉ 11.8212 ha; phân loại tham chiếu theo màu PDF: Tràm 2022-2025.</description><styleUrl>#forest</styleUrl><Polygon><outerBoundaryIs><LinearRing><coordinates>107.8073884920,10.8104066091,0107.05755096</coordinates></LinearRing></outerBoundaryIs></Polygon></Placemark><Placemark><name>DXF polygon 1548</name><description>DXF entity 1548; diện tích hình học thô xấp xỉ 2.6545 ha; phân loại tham chiếu theo màu PDF: Tràm 2022-2025.</description><styleUrl>#forest</styleUrl><Polygon><outerBoundaryIs><LinearRing><coordinates>107.8058588722,10.8057535209,0107.05586847</coordinates></LinearRing></outerBoundaryIs></Polygon></Placemark><Placemark><name>DXF polygon 1549</name><description>DXF entity 1549; diện tích hình học thô xấp xỉ 20.4156 ha; phân loại tham chiếu theo màu PDF: Tràm 2022-2025.</description><styleUrl>#forest</styleUrl><Polygon><outerBoundaryIs><LinearRing><coordinates>107.8023264138,10.8103535695,0107.05230559</coordinates></LinearRing></outerBoundaryIs></Polygon></Placemark><Placemark><name>DXF polygon 1550</name><description>DXF entity 1550; diện tích hình học thô xấp xỉ 5.0367 ha; phân loại tham chiếu theo màu PDF: Tràm 2022-2025.</description><styleUrl>#forest</styleUrl><Polygon><outerBoundaryIs><LinearRing><coordinates>107.8023391937,10.8091597599,0107.05234893</coordinates></LinearRing></outerBoundaryIs></Polygon></Placemark><Placemark><name>DXF polygon 1552</name><description>DXF entity 1552; diện tích hình học thô xấp xỉ 1.5912 ha; phân loại tham chiếu theo màu PDF: Tràm 2022-2025.</description><styleUrl>#forest</styleUrl><Polygon><outerBoundaryIs><LinearRing><coordinates>107.8202553279,10.8206911245,0107.07028341</coordinates></LinearRing></outerBoundaryIs></Polygon></Placemark><Placemark><name>DXF polygon 1553</name><description>DXF entity 1553; diện tích hình học thô xấp xỉ 1.3429 ha; phân loại tham chiếu theo màu PDF: Đất lấn chiếm KL 260.</description><styleUrl>#old</styleUrl><Polygon><outerBoundaryIs><LinearRing><coordinates>107.8040626931,10.8091414198,0107.05407236</coordinates></LinearRing></outerBoundaryIs></Polygon></Placemark><Placemark><name>DXF polygon 1554</name><description>DXF entity 1554; diện tích hình học thô xấp xỉ 4.8182 ha; phân loại tham chiếu theo màu PDF: Đất lấn chiếm KL 260.</description><styleUrl>#old</styleUrl><Polygon><outerBoundaryIs><LinearRing><coordinates>107.8023264438,10.8103598395,0107.05231971</coordinates></LinearRing></outerBoundaryIs></Polygon></Placemark><Placemark><name>DXF polygon 1555</name><description>DXF entity 1555; diện tích hình học thô xấp xỉ 1.3114 ha; phân loại tham chiếu theo màu PDF: Tràm 2022-2025.</description><styleUrl>#forest</styleUrl><Polygon><outerBoundaryIs><LinearRing><coordinates>107.8046349227,10.8063748707,0107.05458935</coordinates></LinearRing></outerBoundaryIs></Polygon></Placemark><Placemark><name>DXF polygon 1556</name><description>DXF entity 1556; diện tích hình học thô xấp xỉ 10.1258 ha; phân loại tham chiếu theo màu PDF: Đất lấn chiếm KL 260.</description><styleUrl>#old</styleUrl><Polygon><outerBoundaryIs><LinearRing><coordinates>107.8125874810,10.8239059539,0107.06255104</coordinates></LinearRing></outerBoundaryIs></Polygon></Placemark><Placemark><name>DXF polygon 1557</name><description>DXF entity 1557; diện tích hình học thô xấp xỉ 17.4899 ha; phân loại tham chiếu theo màu PDF: Tràm 2022-2025.</description><styleUrl>#forest</styleUrl><Polygon><outerBoundaryIs><LinearRing><coordinates>107.8202387880,10.8212997043,0107.07025767</coordinates></LinearRing></outerBoundaryIs></Polygon></Placemark><Placemark><name>DXF polygon 1558</name><description>DXF entity 1558; diện tích hình học thô xấp xỉ 6.0172 ha; phân loại tham chiếu theo màu PDF: Tràm 2022-2025.</description><styleUrl>#forest</styleUrl><Polygon><outerBoundaryIs><LinearRing><coordinates>107.8198567480,10.8199689648,0107.06978283</coordinates></LinearRing></outerBoundaryIs></Polygon></Placemark><Placemark><name>DXF polygon 1559</name><description>DXF entity 1559; diện tích hình học thô xấp xỉ 16.0067 ha; phân loại tham chiếu theo màu PDF: Tràm 2022-2025.</description><styleUrl>#forest</styleUrl><Polygon><outerBoundaryIs><LinearRing><coordinates>107.8160264482,10.8033385310,0107.06603612</coordinates></LinearRing></outerBoundaryIs></Polygon></Placemark><Placemark><name>DXF polygon 1560</name><description>DXF entity 1560; diện tích hình học thô xấp xỉ 0.6925 ha; phân loại tham chiếu theo màu PDF: Tràm 2022-2025.</description><styleUrl>#forest</styleUrl><Polygon><outerBoundaryIs><LinearRing><coordinates>107.8007136834,10.7958652948,0107.05072335</coordinates></LinearRing></outerBoundaryIs></Polygon></Placemark><Placemark><name>DXF polygon 1561</name><description>DXF entity 1561; diện tích hình học thô xấp xỉ 0.8348 ha; phân loại tham chiếu theo màu PDF: Tràm 2022-2025.</description><styleUrl>#forest</styleUrl><Polygon><outerBoundaryIs><LinearRing><coordinates>107.7984889341,10.7946721153,0107.04850817</coordinates></LinearRing></outerBoundaryIs></Polygon></Placemark><Placemark><name>DXF polygon 1562</name><description>DXF entity 1562; diện tích hình học thô xấp xỉ 1.2780 ha; phân loại tham chiếu theo màu PDF: Tràm 2022-2025.</description><styleUrl>#forest</styleUrl><Polygon><outerBoundaryIs><LinearRing><coordinates>107.7968497347,10.7950800353,0107.04688695</coordinates></LinearRing></outerBoundaryIs></Polygon></Placemark><Placemark><name>DXF polygon 1563</name><description>DXF entity 1563; diện tích hình học thô xấp xỉ 6.9690 ha; phân loại tham chiếu theo màu PDF: Tràm 2022-2025.</description><styleUrl>#forest</styleUrl><Polygon><outerBoundaryIs><LinearRing><coordinates>107.7964762145,10.7904256770,0107.04647682</coordinates></LinearRing></outerBoundaryIs></Polygon></Placemark><Placemark><name>DXF polygon 1564</name><description>DXF entity 1564; diện tích hình học thô xấp xỉ 0.6883 ha; phân loại tham chiếu theo màu PDF: Tràm 2022-2025.</description><styleUrl>#forest</styleUrl><Polygon><outerBoundaryIs><LinearRing><coordinates>107.7965673745,10.7900706371,0107.04656783</coordinates></LinearRing></outerBoundaryIs></Polygon></Placemark><Placemark><name>DXF polygon 1565</name><description>DXF entity 1565; diện tích hình học thô xấp xỉ 2.2700 ha; phân loại tham chiếu theo màu PDF: Tràm 2022-2025.</description><styleUrl>#forest</styleUrl><Polygon><outerBoundaryIs><LinearRing><coordinates>107.7931677558,10.7904698172,0107.04316829</coordinates></LinearRing></outerBoundaryIs></Polygon></Placemark><Placemark><name>DXF polygon 1567</name><description>DXF entity 1567; diện tích hình học thô xấp xỉ 3.0762 ha; phân loại tham chiếu theo màu PDF: Đất trảng đồi/suối/G.T.</description><styleUrl>#other</styleUrl><Polygon><outerBoundaryIs><LinearRing><coordinates>107.7972443370,10.8280925135,0107.04727234</coordinates></LinearRing></outerBoundaryIs></Polygon></Placemark><Placemark><name>DXF polygon 1568</name><description>DXF entity 1568; diện tích hình học thô xấp xỉ 2.7750 ha; phân loại tham chiếu theo màu PDF: Đất trảng đồi/suối/G.T.</description><styleUrl>#other</styleUrl><Polygon><outerBoundaryIs><LinearRing><coordinates>107.7986375865,10.8285680532,0107.04865617</coordinates></LinearRing></outerBoundaryIs></Polygon></Placemark><Placemark><name>DXF polygon 1569</name><description>DXF entity 1569; diện tích hình học thô xấp xỉ 1.0806 ha; phân loại tham chiếu theo màu PDF: Tràm 2022-2025.</description><styleUrl>#forest</styleUrl><Polygon><outerBoundaryIs><LinearRing><coordinates>107.7988068565,10.8296559128,0107.04881637</coordinates></LinearRing></outerBoundaryIs></Polygon></Placemark><Placemark><name>DXF polygon 1570</name><description>DXF entity 1570; diện tích hình học thô xấp xỉ 0.7692 ha; phân loại tham chiếu theo màu PDF: Tràm 2022-2025.</description><styleUrl>#forest</styleUrl><Polygon><outerBoundaryIs><LinearRing><coordinates>107.7986226966,10.8297395928,0107.04862351</coordinates></LinearRing></outerBoundaryIs></Polygon></Placemark><Placemark><name>DXF polygon 1572</name><description>DXF entity 1572; diện tích hình học thô xấp xỉ 9.5925 ha; phân loại tham chiếu theo màu PDF: Đất lấn chiếm mới.</description><styleUrl>#new</styleUrl><Polygon><outerBoundaryIs><LinearRing><coordinates>107.7973234171,10.8298534329,0107.04973940</coordinates></LinearRing></outerBoundaryIs></Polygon></Placemark></Folder><Folder><name>PDF - Lấn chiếm cũ KL260</name><Placemark><name>PDF lấn chiếm cũ KL260 #1</name><description>Đa giác trích xuất từ màu bản đồ PDF; diện tích xấp xỉ theo độ phân giải bản đồ: 4.5146 ha. Đây là số liệu GIS xấp xỉ, không thay thế diện tích pháp lý.</description><styleUrl>#old</styleUrl><Polygon><outerBoundaryIs><LinearRing><coordinates>107.8182213092,10.8276457022,0107.06819068</coordinates></LinearRing></outerBoundaryIs></Polygon></Placemark><Placemark><name>PDF lấn chiếm cũ KL260 #2</name><description>Đa giác trích xuất từ màu bản đồ PDF; diện tích xấp xỉ theo độ phân giải bản đồ: 4.9935 ha. Đây là số liệu GIS xấp xỉ, không thay thế diện tích pháp lý.</description><styleUrl>#old</styleUrl><Polygon><outerBoundaryIs><LinearRing><coordinates>107.8123306312,10.8253642934,0107.06234095</coordinates></LinearRing></outerBoundaryIs></Polygon></Placemark><Placemark><name>PDF lấn chiếm cũ KL260 #4</name><description>Đa giác trích xuất từ màu bản đồ PDF; diện tích xấp xỉ theo độ phân giải bản đồ: 5.2613 ha. Đây là số liệu GIS xấp xỉ, không thay thế diện tích pháp lý.</description><styleUrl>#old</styleUrl><Polygon><outerBoundaryIs><LinearRing><coordinates>107.8069710931,10.8236105444,0107.05673510</coordinates></LinearRing></outerBoundaryIs></Polygon></Placemark><Placemark><name>PDF lấn chiếm cũ KL260 #5</name><description>Đa giác trích xuất từ màu bản đồ PDF; diện tích xấp xỉ theo độ phân giải bản đồ: 3.0781 ha. Đây là số liệu GIS xấp xỉ, không thay thế diện tích pháp lý.</description><styleUrl>#old</styleUrl><Polygon><outerBoundaryIs><LinearRing><coordinates>107.8124986510,10.8235013941,0107.06254963</coordinates></LinearRing></outerBoundaryIs></Polygon></Placemark><Placemark><name>PDF lấn chiếm cũ KL260 #6</name><description>Đa giác trích xuất từ màu bản đồ PDF; diện tích xấp xỉ theo độ phân giải bản đồ: 197.4535 ha. Đây là số liệu GIS xấp xỉ, không thay thế diện tích pháp lý.</description><styleUrl>#old</styleUrl><Polygon><outerBoundaryIs><LinearRing><coordinates>107.8200783780,10.8211688344,0107.06640322</coordinates></LinearRing></outerBoundaryIs></Polygon></Placemark><Placemark><name>PDF lấn chiếm cũ KL260 #7</name><description>Đa giác trích xuất từ màu bản đồ PDF; diện tích xấp xỉ theo độ phân giải bản đồ: 0.1157 ha. Đây là số liệu GIS xấp xỉ, không thay thế diện tích pháp lý.</description><styleUrl>#old</styleUrl><Polygon><outerBoundaryIs><LinearRing><coordinates>107.8041523039,10.8208903056,0107.05416365</coordinates></LinearRing></outerBoundaryIs></Polygon></Placemark><Placemark><name>PDF lấn chiếm cũ KL260 #9</name><description>Đa giác trích xuất từ màu bản đồ PDF; diện tích xấp xỉ theo độ phân giải bản đồ: 3.2242 ha. Đây là số liệu GIS xấp xỉ, không thay thế diện tích pháp lý.</description><styleUrl>#old</styleUrl><Polygon><outerBoundaryIs><LinearRing><coordinates>107.8066113629,10.8198021758,0107.05567982</coordinates></LinearRing></outerBoundaryIs></Polygon></Placemark><Placemark><name>PDF lấn chiếm cũ KL260 #10</name><description>Đa giác trích xuất từ màu bản đồ PDF; diện tích xấp xỉ theo độ phân giải bản đồ: 1.4812 ha. Đây là số liệu GIS xấp xỉ, không thay thế diện tích pháp lý.</description><styleUrl>#old</styleUrl><Polygon><outerBoundaryIs><LinearRing><coordinates>107.8032962541,10.8192681362,0107.05232340</coordinates></LinearRing></outerBoundaryIs></Polygon></Placemark><Placemark><name>PDF lấn chiếm cũ KL260 #11</name><description>Đa giác trích xuất từ màu bản đồ PDF; diện tích xấp xỉ theo độ phân giải bản đồ: 1.0571 ha. Đây là số liệu GIS xấp xỉ, không thay thế diện tích pháp lý.</description><styleUrl>#old</styleUrl><Polygon><outerBoundaryIs><LinearRing><coordinates>107.8216801473,10.8189445251,0107.07169110</coordinates></LinearRing></outerBoundaryIs></Polygon></Placemark><Placemark><name>PDF lấn chiếm cũ KL260 #13</name><description>Đa giác trích xuất từ màu bản đồ PDF; diện tích xấp xỉ theo độ phân giải bản đồ: 0.4220 ha. Đây là số liệu GIS xấp xỉ, không thay thế diện tích pháp lý.</description><styleUrl>#old</styleUrl><Polygon><outerBoundaryIs><LinearRing><coordinates>107.8017033546,10.8176037969,0107.05154906</coordinates></LinearRing></outerBoundaryIs></Polygon></Placemark><Placemark><name>PDF lấn chiếm cũ KL260 #15</name><description>Đa giác trích xuất từ màu bản đồ PDF; diện tích xấp xỉ theo độ phân giải bản đồ: 0.8015 ha. Đây là số liệu GIS xấp xỉ, không thay thế diện tích pháp lý.</description><styleUrl>#old</styleUrl><Polygon><outerBoundaryIs><LinearRing><coordinates>107.8032596140,10.8174047869,0107.05310551</coordinates></LinearRing></outerBoundaryIs></Polygon></Placemark><Placemark><name>PDF lấn chiếm cũ KL260 #20</name><description>Đa giác trích xuất từ màu bản đồ PDF; diện tích xấp xỉ theo độ phân giải bản đồ: 0.5357 ha. Đây là số liệu GIS xấp xỉ, không thay thế diện tích pháp lý.</description><styleUrl>#old</styleUrl><Polygon><outerBoundaryIs><LinearRing><coordinates>107.8106047807,10.8101706990,0107.06061464</coordinates></LinearRing></outerBoundaryIs></Polygon></Placemark><Placemark><name>PDF lấn chiếm cũ KL260 #21</name><description>Đa giác trích xuất từ màu bản đồ PDF; diện tích xấp xỉ theo độ phân giải bản đồ: 0.8948 ha. Đây là số liệu GIS xấp xỉ, không thay thế diện tích pháp lý.</description><styleUrl>#old</styleUrl><Polygon><outerBoundaryIs><LinearRing><coordinates>107.8034430033,10.8088989499,0107.05337117</coordinates></LinearRing></outerBoundaryIs></Polygon></Placemark><Placemark><name>PDF lấn chiếm cũ KL260 #22</name><description>Đa giác trích xuất từ màu bản đồ PDF; diện tích xấp xỉ theo độ phân giải bản đồ: 0.7751 ha. Đây là số liệu GIS xấp xỉ, không thay thế diện tích pháp lý.</description><styleUrl>#old</styleUrl><Polygon><outerBoundaryIs><LinearRing><coordinates>107.8104036807,10.8085905195,0107.06012723</coordinates></LinearRing></outerBoundaryIs></Polygon></Placemark><Placemark><name>PDF lấn chiếm cũ KL260 #23</name><description>Đa giác trích xuất từ màu bản đồ PDF; diện tích xấp xỉ theo độ phân giải bản đồ: 2.5931 ha. Đây là số liệu GIS xấp xỉ, không thay thế diện tích pháp lý.</description><styleUrl>#old</styleUrl><Polygon><outerBoundaryIs><LinearRing><coordinates>107.8082394813,10.8061148106,0107.05824934</coordinates></LinearRing></outerBoundaryIs></Polygon></Placemark><Placemark><name>PDF lấn chiếm cũ KL260 #24</name><description>Đa giác trích xuất từ màu bản đồ PDF; diện tích xấp xỉ theo độ phân giải bản đồ: 20.2885 ha. Đây là số liệu GIS xấp xỉ, không thay thế diện tích pháp lý.</description><styleUrl>#old</styleUrl><Polygon><outerBoundaryIs><LinearRing><coordinates>107.7939097766,10.8063254415,0107.04375568</coordinates></LinearRing></outerBoundaryIs></Polygon></Placemark><Placemark><name>PDF lấn chiếm cũ KL260 #25</name><description>Đa giác trích xuất từ màu bản đồ PDF; diện tích xấp xỉ theo độ phân giải bản đồ: 98.1779 ha. Đây là số liệu GIS xấp xỉ, không thay thế diện tích pháp lý.</description><styleUrl>#old</styleUrl><Polygon><outerBoundaryIs><LinearRing><coordinates>107.7993460236,10.7924847861,0107.04947850</coordinates></LinearRing></outerBoundaryIs></Polygon></Placemark><Placemark><name>PDF lấn chiếm cũ KL260 #26</name><description>Đa giác trích xuất từ màu bản đồ PDF; diện tích xấp xỉ theo độ phân giải bản đồ: 3.6462 ha. Đây là số liệu GIS xấp xỉ, không thay thế diện tích pháp lý.</description><styleUrl>#old</styleUrl><Polygon><outerBoundaryIs><LinearRing><coordinates>107.8220013960,10.8035124105,0107.07172467</coordinates></LinearRing></outerBoundaryIs></Polygon></Placemark><Placemark><name>PDF lấn chiếm cũ KL260 #28</name><description>Đa giác trích xuất từ màu bản đồ PDF; diện tích xấp xỉ theo độ phân giải bản đồ: 33.1061 ha. Đây là số liệu GIS xấp xỉ, không thay thế diện tích pháp lý.</description><styleUrl>#old</styleUrl><Polygon><outerBoundaryIs><LinearRing><coordinates>107.7990828343,10.8000588034,0107.04901062</coordinates></LinearRing></outerBoundaryIs></Polygon></Placemark><Placemark><name>PDF lấn chiếm cũ KL260 #32</name><description>Đa giác trích xuất từ màu bản đồ PDF; diện tích xấp xỉ theo độ phân giải bản đồ: 5.5535 ha. Đây là số liệu GIS xấp xỉ, không thay thế diện tích pháp lý.</description><styleUrl>#old</styleUrl><Polygon><outerBoundaryIs><LinearRing><coordinates>107.8088729505,10.7976504735,0107.05867857</coordinates></LinearRing></outerBoundaryIs></Polygon></Placemark><Placemark><name>PDF lấn chiếm cũ KL260 #33</name><description>Đa giác trích xuất từ màu bản đồ PDF; diện tích xấp xỉ theo độ phân giải bản đồ: 14.8649 ha. Đây là số liệu GIS xấp xỉ, không thay thế diện tích pháp lý.</description><styleUrl>#old</styleUrl><Polygon><outerBoundaryIs><LinearRing><coordinates>107.7937329958,10.7943758058,0107.04259638</coordinates></LinearRing></outerBoundaryIs></Polygon></Placemark><Placemark><name>PDF lấn chiếm cũ KL260 #34</name><description>Đa giác trích xuất từ màu bản đồ PDF; diện tích xấp xỉ theo độ phân giải bản đồ: 5.9533 ha. Đây là số liệu GIS xấp xỉ, không thay thế diện tích pháp lý.</description><styleUrl>#old</styleUrl><Polygon><outerBoundaryIs><LinearRing><coordinates>107.7977880043,10.7934939058,0107.04775701</coordinates></LinearRing></outerBoundaryIs></Polygon></Placemark><Placemark><name>PDF lấn chiếm cũ KL260 #36</name><description>Đa giác trích xuất từ màu bản đồ PDF; diện tích xấp xỉ theo độ phân giải bản đồ: 4.5431 ha. Đây là số liệu GIS xấp xỉ, không thay thế diện tích pháp lý.</description><styleUrl>#old</styleUrl><Polygon><outerBoundaryIs><LinearRing><coordinates>107.7958699248,10.7908971669,0107.04579752</coordinates></LinearRing></outerBoundaryIs></Polygon></Placemark></Folder><Folder><name>PDF - Lấn chiếm mới</name><Placemark><name>PDF lấn chiếm mới #1</name><description>Đa giác trích xuất từ màu bản đồ PDF; diện tích xấp xỉ theo độ phân giải bản đồ: 0.0710 ha. Đây là số liệu GIS xấp xỉ, không thay thế diện tích pháp lý.</description><styleUrl>#new</styleUrl><Polygon><outerBoundaryIs><LinearRing><coordinates>107.8164234697,10.8260214829,0107.06639266</coordinates></LinearRing></outerBoundaryIs></Polygon></Placemark><Placemark><name>PDF lấn chiếm mới #2</name><description>Đa giác trích xuất từ màu bản đồ PDF; diện tích xấp xỉ theo độ phân giải bản đồ: 0.0690 ha. Đây là số liệu GIS xấp xỉ, không thay thế diện tích pháp lý.</description><styleUrl>#new</styleUrl><Polygon><outerBoundaryIs><LinearRing><coordinates>107.8130665910,10.8258115032,0107.06311748</coordinates></LinearRing></outerBoundaryIs></Polygon></Placemark><Placemark><name>PDF lấn chiếm mới #3</name><description>Đa giác trích xuất từ màu bản đồ PDF; diện tích xấp xỉ theo độ phân giải bản đồ: 0.0507 ha. Đây là số liệu GIS xấp xỉ, không thay thế diện tích pháp lý.</description><styleUrl>#new</styleUrl><Polygon><outerBoundaryIs><LinearRing><coordinates>107.8193727586,10.8254204129,0107.06938270</coordinates></LinearRing></outerBoundaryIs></Polygon></Placemark><Placemark><name>PDF lấn chiếm mới #5</name><description>Đa giác trích xuất từ màu bản đồ PDF; diện tích xấp xỉ theo độ phân giải bản đồ: 0.2110 ha. Đây là số liệu GIS xấp xỉ, không thay thế diện tích pháp lý.</description><styleUrl>#new</styleUrl><Polygon><outerBoundaryIs><LinearRing><coordinates>107.8058643335,10.8241751443,0107.05554646</coordinates></LinearRing></outerBoundaryIs></Polygon></Placemark><Placemark><name>PDF lấn chiếm mới #6</name><description>Đa giác trích xuất từ màu bản đồ PDF; diện tích xấp xỉ theo độ phân giải bản đồ: 0.1339 ha. Đây là số liệu GIS xấp xỉ, không thay thế diện tích pháp lý.</description><styleUrl>#new</styleUrl><Polygon><outerBoundaryIs><LinearRing><coordinates>107.8128668609,10.8236237340,0107.06287672</coordinates></LinearRing></outerBoundaryIs></Polygon></Placemark><Placemark><name>PDF lấn chiếm mới #9</name><description>Đa giác trích xuất từ màu bản đồ PDF; diện tích xấp xỉ theo độ phân giải bản đồ: 0.1055 ha. Đây là số liệu GIS xấp xỉ, không thay thế diện tích pháp lý.</description><styleUrl>#new</styleUrl><Polygon><outerBoundaryIs><LinearRing><coordinates>107.8089800722,10.8223998747,0107.05907209</coordinates></LinearRing></outerBoundaryIs></Polygon></Placemark><Placemark><name>PDF lấn chiếm mới #10</name><description>Đa giác trích xuất từ màu bản đồ PDF; diện tích xấp xỉ theo độ phân giải bản đồ: 0.1481 ha. Đây là số liệu GIS xấp xỉ, không thay thế diện tích pháp lý.</description><styleUrl>#new</styleUrl><Polygon><outerBoundaryIs><LinearRing><coordinates>107.8070152929,10.8221929349,0107.05702543</coordinates></LinearRing></outerBoundaryIs></Polygon></Placemark><Placemark><name>PDF lấn chiếm mới #11</name><description>Đa giác trích xuất từ màu bản đồ PDF; diện tích xấp xỉ theo độ phân giải bản đồ: 0.1116 ha. Đây là số liệu GIS xấp xỉ, không thay thế diện tích pháp lý.</description><styleUrl>#new</styleUrl><Polygon><outerBoundaryIs><LinearRing><coordinates>107.8135257305,10.8219644545,0107.06345351</coordinates></LinearRing></outerBoundaryIs></Polygon></Placemark><Placemark><name>PDF lấn chiếm mới #12</name><description>Đa giác trích xuất từ màu bản đồ PDF; diện tích xấp xỉ theo độ phân giải bản đồ: 0.0933 ha. Đây là số liệu GIS xấp xỉ, không thay thế diện tích pháp lý.</description><styleUrl>#new</styleUrl><Polygon><outerBoundaryIs><LinearRing><coordinates>107.8099231518,10.8217943949,0107.06001516</coordinates></LinearRing></outerBoundaryIs></Polygon></Placemark><Placemark><name>PDF lấn chiếm mới #13</name><description>Đa giác trích xuất từ màu bản đồ PDF; diện tích xấp xỉ theo độ phân giải bản đồ: 0.0730 ha. Đây là số liệu GIS xấp xỉ, không thay thế diện tích pháp lý.</description><styleUrl>#new</styleUrl><Polygon><outerBoundaryIs><LinearRing><coordinates>107.8113978213,10.8214736349,0107.06140777</coordinates></LinearRing></outerBoundaryIs></Polygon></Placemark><Placemark><name>PDF lấn chiếm mới #14</name><description>Đa giác trích xuất từ màu bản đồ PDF; diện tích xấp xỉ theo độ phân giải bản đồ: 0.0568 ha. Đây là số liệu GIS xấp xỉ, không thay thế diện tích pháp lý.</description><styleUrl>#new</styleUrl><Polygon><outerBoundaryIs><LinearRing><coordinates>107.8102517017,10.8213495650,0107.06026156</coordinates></LinearRing></outerBoundaryIs></Polygon></Placemark><Placemark><name>PDF lấn chiếm mới #15</name><description>Đa giác trích xuất từ màu bản đồ PDF; diện tích xấp xỉ theo độ phân giải bản đồ: 0.2658 ha. Đây là số liệu GIS xấp xỉ, không thay thế diện tích pháp lý.</description><styleUrl>#new</styleUrl><Polygon><outerBoundaryIs><LinearRing><coordinates>107.8079608725,10.8204938055,0107.05780715</coordinates></LinearRing></outerBoundaryIs></Polygon></Placemark><Placemark><name>PDF lấn chiếm mới #17</name><description>Đa giác trích xuất từ màu bản đồ PDF; diện tích xấp xỉ theo độ phân giải bản đồ: 0.2617 ha. Đây là số liệu GIS xấp xỉ, không thay thế diện tích pháp lý.</description><styleUrl>#new</styleUrl><Polygon><outerBoundaryIs><LinearRing><coordinates>107.8064876930,10.8201664557,0107.05649764</coordinates></LinearRing></outerBoundaryIs></Polygon></Placemark><Placemark><name>PDF lấn chiếm mới #19</name><description>Đa giác trích xuất từ màu bản đồ PDF; diện tích xấp xỉ theo độ phân giải bản đồ: 0.0710 ha. Đây là số liệu GIS xấp xỉ, không thay thế diện tích pháp lý.</description><styleUrl>#new</styleUrl><Polygon><outerBoundaryIs><LinearRing><coordinates>107.8030090042,10.8195510361,0107.05305999</coordinates></LinearRing></outerBoundaryIs></Polygon></Placemark><Placemark><name>PDF lấn chiếm mới #20</name><description>Đa giác trích xuất từ màu bản đồ PDF; diện tích xấp xỉ theo độ phân giải bản đồ: 0.0507 ha. Đây là số liệu GIS xấp xỉ, không thay thế diện tích pháp lý.</description><styleUrl>#new</styleUrl><Polygon><outerBoundaryIs><LinearRing><coordinates>107.8021084646,10.8194679862,0107.05211850</coordinates></LinearRing></outerBoundaryIs></Polygon></Placemark><Placemark><name>PDF lấn chiếm mới #21</name><description>Đa giác trích xuất từ màu bản đồ PDF; diện tích xấp xỉ theo độ phân giải bản đồ: 0.5478 ha. Đây là số liệu GIS xấp xỉ, không thay thế diện tích pháp lý.</description><styleUrl>#new</styleUrl><Polygon><outerBoundaryIs><LinearRing><coordinates>107.8065714429,10.8193565260,0107.05625357</coordinates></LinearRing></outerBoundaryIs></Polygon></Placemark><Placemark><name>PDF lấn chiếm mới #22</name><description>Đa giác trích xuất từ màu bản đồ PDF; diện tích xấp xỉ theo độ phân giải bản đồ: 0.0548 ha. Đây là số liệu GIS xấp xỉ, không thay thế diện tích pháp lý.</description><styleUrl>#new</styleUrl><Polygon><outerBoundaryIs><LinearRing><coordinates>107.8018637446,10.8190623764,0107.05187379</coordinates></LinearRing></outerBoundaryIs></Polygon></Placemark><Placemark><name>PDF lấn chiếm mới #23</name><description>Đa giác trích xuất từ màu bản đồ PDF; diện tích xấp xỉ theo độ phân giải bản đồ: 0.3145 ha. Đây là số liệu GIS xấp xỉ, không thay thế diện tích pháp lý.</description><styleUrl>#new</styleUrl><Polygon><outerBoundaryIs><LinearRing><coordinates>107.8195105781,10.8187777253,0107.06927459</coordinates></LinearRing></outerBoundaryIs></Polygon></Placemark><Placemark><name>PDF lấn chiếm mới #24</name><description>Đa giác trích xuất từ màu bản đồ PDF; diện tích xấp xỉ theo độ phân giải bản đồ: 0.0872 ha. Đây là số liệu GIS xấp xỉ, không thay thế diện tích pháp lý.</description><styleUrl>#new</styleUrl><Polygon><outerBoundaryIs><LinearRing><coordinates>107.8229905768,10.8188258850,0107.07291882</coordinates></LinearRing></outerBoundaryIs></Polygon></Placemark><Placemark><name>PDF lấn chiếm mới #25</name><description>Đa giác trích xuất từ màu bản đồ PDF; diện tích xấp xỉ theo độ phân giải bản đồ: 0.1745 ha. Đây là số liệu GIS xấp xỉ, không thay thế diện tích pháp lý.</description><styleUrl>#new</styleUrl><Polygon><outerBoundaryIs><LinearRing><coordinates>107.8041990337,10.8183790465,0107.05416832</coordinates></LinearRing></outerBoundaryIs></Polygon></Placemark><Placemark><name>PDF lấn chiếm mới #26</name><description>Đa giác trích xuất từ màu bản đồ PDF; diện tích xấp xỉ theo độ phân giải bản đồ: 0.3673 ha. Đây là số liệu GIS xấp xỉ, không thay thế diện tích pháp lý.</description><styleUrl>#new</styleUrl><Polygon><outerBoundaryIs><LinearRing><coordinates>107.8057548331,10.8183825464,0107.05568262</coordinates></LinearRing></outerBoundaryIs></Polygon></Placemark><Placemark><name>PDF lấn chiếm mới #27</name><description>Đa giác trích xuất từ màu bản đồ PDF; diện tích xấp xỉ theo độ phân giải bản đồ: 0.1096 ha. Đây là số liệu GIS xấp xỉ, không thay thế diện tích pháp lý.</description><styleUrl>#new</styleUrl><Polygon><outerBoundaryIs><LinearRing><coordinates>107.8219270771,10.8183779852,0107.07173222</coordinates></LinearRing></outerBoundaryIs></Polygon></Placemark><Placemark><name>PDF lấn chiếm mới #28</name><description>Đa giác trích xuất từ màu bản đồ PDF; diện tích xấp xỉ theo độ phân giải bản đồ: 0.0872 ha. Đây là số liệu GIS xấp xỉ, không thay thế diện tích pháp lý.</description><styleUrl>#new</styleUrl><Polygon><outerBoundaryIs><LinearRing><coordinates>107.8014151647,10.8182917467,0107.05130200</coordinates></LinearRing></outerBoundaryIs></Polygon></Placemark><Placemark><name>PDF lấn chiếm mới #29</name><description>Đa giác trích xuất từ màu bản đồ PDF; diện tích xấp xỉ theo độ phân giải bản đồ: 0.2415 ha. Đây là số liệu GIS xấp xỉ, không thay thế diện tích pháp lý.</description><styleUrl>#new</styleUrl><Polygon><outerBoundaryIs><LinearRing><coordinates>107.8065339428,10.8178577165,0107.05658530</coordinates></LinearRing></outerBoundaryIs></Polygon></Placemark><Placemark><name>PDF lấn chiếm mới #30</name><description>Đa giác trích xuất từ màu bản đồ PDF; diện tích xấp xỉ theo độ phân giải bản đồ: 0.1562 ha. Đây là số liệu GIS xấp xỉ, không thay thế diện tích pháp lý.</description><styleUrl>#new</styleUrl><Polygon><outerBoundaryIs><LinearRing><coordinates>107.8089083919,10.8179440563,0107.05887768</coordinates></LinearRing></outerBoundaryIs></Polygon></Placemark><Placemark><name>PDF lấn chiếm mới #31</name><description>Đa giác trích xuất từ màu bản đồ PDF; diện tích xấp xỉ theo độ phân giải bản đồ: 0.2029 ha. Đây là số liệu GIS xấp xỉ, không thay thế diện tích pháp lý.</description><styleUrl>#new</styleUrl><Polygon><outerBoundaryIs><LinearRing><coordinates>107.8032176440,10.8178502567,0107.05310476</coordinates></LinearRing></outerBoundaryIs></Polygon></Placemark><Placemark><name>PDF lấn chiếm mới #32</name><description>Đa giác trích xuất từ màu bản đồ PDF; diện tích xấp xỉ theo độ phân giải bản đồ: 0.1907 ha. Đây là số liệu GIS xấp xỉ, không thay thế diện tích pháp lý.</description><styleUrl>#new</styleUrl><Polygon><outerBoundaryIs><LinearRing><coordinates>107.8043642036,10.8177718267,0107.05404652</coordinates></LinearRing></outerBoundaryIs></Polygon></Placemark><Placemark><name>PDF lấn chiếm mới #33</name><description>Đa giác trích xuất từ màu bản đồ PDF; diện tích xấp xỉ theo độ phân giải bản đồ: 0.1096 ha. Đây là số liệu GIS xấp xỉ, không thay thế diện tích pháp lý.</description><styleUrl>#new</styleUrl><Polygon><outerBoundaryIs><LinearRing><coordinates>107.8208642175,10.8176465356,0107.07079201</coordinates></LinearRing></outerBoundaryIs></Polygon></Placemark><Placemark><name>PDF lấn chiếm mới #34</name><description>Đa giác trích xuất từ màu bản đồ PDF; diện tích xấp xỉ theo độ phân giải bản đồ: 0.1096 ha. Đây là số liệu GIS xấp xỉ, không thay thế diện tích pháp lý.</description><styleUrl>#new</styleUrl><Polygon><outerBoundaryIs><LinearRing><coordinates>107.8098512716,10.8174195864,0107.05986149</coordinates></LinearRing></outerBoundaryIs></Polygon></Placemark><Placemark><name>PDF lấn chiếm mới #37</name><description>Đa giác trích xuất từ màu bản đồ PDF; diện tích xấp xỉ theo độ phân giải bản đồ: 1.0977 ha. Đây là số liệu GIS xấp xỉ, không thay thế diện tích pháp lý.</description><styleUrl>#new</styleUrl><Polygon><outerBoundaryIs><LinearRing><coordinates>107.8051045232,10.8163152771,0107.05503212</coordinates></LinearRing></outerBoundaryIs></Polygon></Placemark><Placemark><name>PDF lấn chiếm mới #38</name><description>Đa giác trích xuất từ màu bản đồ PDF; diện tích xấp xỉ theo độ phân giải bản đồ: 0.2374 ha. Đây là số liệu GIS xấp xỉ, không thay thế diện tích pháp lý.</description><styleUrl>#new</styleUrl><Polygon><outerBoundaryIs><LinearRing><coordinates>107.8059641129,10.8163982271,0107.05585132</coordinates></LinearRing></outerBoundaryIs></Polygon></Placemark><Placemark><name>PDF lấn chiếm mới #39</name><description>Đa giác trích xuất từ màu bản đồ PDF; diện tích xấp xỉ theo độ phân giải bản đồ: 0.0933 ha. Đây là số liệu GIS xấp xỉ, không thay thế diện tích pháp lý.</description><styleUrl>#new</styleUrl><Polygon><outerBoundaryIs><LinearRing><coordinates>107.8178780985,10.8164652762,0107.06788887</coordinates></LinearRing></outerBoundaryIs></Polygon></Placemark><Placemark><name>PDF lấn chiếm mới #40</name><description>Đa giác trích xuất từ màu bản đồ PDF; diện tích xấp xỉ theo độ phân giải bản đồ: 0.1481 ha. Đây là số liệu GIS xấp xỉ, không thay thế diện tích pháp lý.</description><styleUrl>#new</styleUrl><Polygon><outerBoundaryIs><LinearRing><coordinates>107.8208679574,10.8159857962,0107.07075517</coordinates></LinearRing></outerBoundaryIs></Polygon></Placemark><Placemark><name>PDF lấn chiếm mới #41</name><description>Đa giác trích xuất từ màu bản đồ PDF; diện tích xấp xỉ theo độ phân giải bản đồ: 0.2333 ha. Đây là số liệu GIS xấp xỉ, không thay thế diện tích pháp lý.</description><styleUrl>#new</styleUrl><Polygon><outerBoundaryIs><LinearRing><coordinates>107.7996604852,10.8157764077,0107.04954732</coordinates></LinearRing></outerBoundaryIs></Polygon></Placemark><Placemark><name>PDF lấn chiếm mới #42</name><description>Đa giác trích xuất từ màu bản đồ PDF; diện tích xấp xỉ theo độ phân giải bản đồ: 0.1197 ha. Đây là số liệu GIS xấp xỉ, không thay thế diện tích pháp lý.</description><styleUrl>#new</styleUrl><Polygon><outerBoundaryIs><LinearRing><coordinates>107.8169791188,10.8156936765,0107.06641579</coordinates></LinearRing></outerBoundaryIs></Polygon></Placemark><Placemark><name>PDF lấn chiếm mới #43</name><description>Đa giác trích xuất từ màu bản đồ PDF; diện tích xấp xỉ theo độ phân giải bản đồ: 0.0528 ha. Đây là số liệu GIS xấp xỉ, không thay thế diện tích pháp lý.</description><styleUrl>#new</styleUrl><Polygon><outerBoundaryIs><LinearRing><coordinates>107.7985560056,10.8153688379,0107.04864793</coordinates></LinearRing></outerBoundaryIs></Polygon></Placemark><Placemark><name>PDF lấn chiếm mới #44</name><description>Đa giác trích xuất từ màu bản đồ PDF; diện tích xấp xỉ theo độ phân giải bản đồ: 0.8137 ha. Đây là số liệu GIS xấp xỉ, không thay thế diện tích pháp lý.</description><styleUrl>#new</styleUrl><Polygon><outerBoundaryIs><LinearRing><coordinates>107.7992935153,10.8151274780,0107.04901687</coordinates></LinearRing></outerBoundaryIs></Polygon></Placemark><Placemark><name>PDF lấn chiếm mới #45</name><description>Đa giác trích xuất từ màu bản đồ PDF; diện tích xấp xỉ theo độ phân giải bản đồ: 0.0751 ha. Đây là số liệu GIS xấp xỉ, không thay thế diện tích pháp lý.</description><styleUrl>#new</styleUrl><Polygon><outerBoundaryIs><LinearRing><coordinates>107.7976170758,10.8141920384,0107.04758618</coordinates></LinearRing></outerBoundaryIs></Polygon></Placemark><Placemark><name>PDF lấn chiếm mới #46</name><description>Đa giác trích xuất từ màu bản đồ PDF; diện tích xấp xỉ theo độ phân giải bản đồ: 0.0872 ha. Đây là số liệu GIS xấp xỉ, không thay thế diện tích pháp lý.</description><styleUrl>#new</styleUrl><Polygon><outerBoundaryIs><LinearRing><coordinates>107.8187436380,10.8139153071,0107.06867198</coordinates></LinearRing></outerBoundaryIs></Polygon></Placemark><Placemark><name>PDF lấn chiếm mới #47</name><description>Đa giác trích xuất từ màu bản đồ PDF; diện tích xấp xỉ theo độ phân giải bản đồ: 0.2861 ha. Đây là số liệu GIS xấp xỉ, không thay thế diện tích pháp lý.</description><styleUrl>#new</styleUrl><Polygon><outerBoundaryIs><LinearRing><coordinates>107.7982740255,10.8133834087,0107.04828388</coordinates></LinearRing></outerBoundaryIs></Polygon></Placemark><Placemark><name>PDF lấn chiếm mới #48</name><description>Đa giác trích xuất từ màu bản đồ PDF; diện tích xấp xỉ theo độ phân giải bản đồ: 0.6635 ha. Đây là số liệu GIS xấp xỉ, không thay thế diện tích pháp lý.</description><styleUrl>#new</styleUrl><Polygon><outerBoundaryIs><LinearRing><coordinates>107.8185411280,10.8129427174,0107.06818214</coordinates></LinearRing></outerBoundaryIs></Polygon></Placemark><Placemark><name>PDF lấn chiếm mới #49</name><description>Đa giác trích xuất từ màu bản đồ PDF; diện tích xấp xỉ theo độ phân giải bản đồ: 0.0730 ha. Đây là số liệu GIS xấp xỉ, không thay thế diện tích pháp lý.</description><styleUrl>#new</styleUrl><Polygon><outerBoundaryIs><LinearRing><coordinates>107.7977840457,10.8128152189,0107.04762995</coordinates></LinearRing></outerBoundaryIs></Polygon></Placemark><Placemark><name>PDF lấn chiếm mới #50</name><description>Đa giác trích xuất từ màu bản đồ PDF; diện tích xấp xỉ theo độ phân giải bản đồ: 0.1136 ha. Đây là số liệu GIS xấp xỉ, không thay thế diện tích pháp lý.</description><styleUrl>#new</styleUrl><Polygon><outerBoundaryIs><LinearRing><coordinates>107.8133838899,10.8123237080,0107.06314791</coordinates></LinearRing></outerBoundaryIs></Polygon></Placemark><Placemark><name>PDF lấn chiếm mới #51</name><description>Đa giác trích xuất từ màu bản đồ PDF; diện tích xấp xỉ theo độ phân giải bản đồ: 0.2049 ha. Đây là số liệu GIS xấp xỉ, không thay thế diện tích pháp lý.</description><styleUrl>#new</styleUrl><Polygon><outerBoundaryIs><LinearRing><coordinates>107.8127707801,10.8118767782,0107.06224849</coordinates></LinearRing></outerBoundaryIs></Polygon></Placemark><Placemark><name>PDF lấn chiếm mới #52</name><description>Đa giác trích xuất từ màu bản đồ PDF; diện tích xấp xỉ theo độ phân giải bản đồ: 0.3003 ha. Đây là số liệu GIS xấp xỉ, không thay thế diện tích pháp lý.</description><styleUrl>#new</styleUrl><Polygon><outerBoundaryIs><LinearRing><coordinates>107.7976646156,10.8113567294,0107.04763371</coordinates></LinearRing></outerBoundaryIs></Polygon></Placemark><Placemark><name>PDF lấn chiếm mới #53</name><description>Đa giác trích xuất từ màu bản đồ PDF; diện tích xấp xỉ theo độ phân giải bản đồ: 0.6006 ha. Đây là số liệu GIS xấp xỉ, không thay thế diện tích pháp lý.</description><styleUrl>#new</styleUrl><Polygon><outerBoundaryIs><LinearRing><coordinates>107.8119533403,10.8112673685,0107.06089873</coordinates></LinearRing></outerBoundaryIs></Polygon></Placemark><Placemark><name>PDF lấn chiếm mới #55</name><description>Đa giác trích xuất từ màu bản đồ PDF; diện tích xấp xỉ theo độ phân giải bản đồ: 0.1299 ha. Đây là số liệu GIS xấp xỉ, không thay thế diện tích pháp lý.</description><styleUrl>#new</styleUrl><Polygon><outerBoundaryIs><LinearRing><coordinates>107.7969281459,10.8111525296,0107.04677414</coordinates></LinearRing></outerBoundaryIs></Polygon></Placemark><Placemark><name>PDF lấn chiếm mới #57</name><description>Đa giác trích xuất từ màu bản đồ PDF; diện tích xấp xỉ theo độ phân giải bản đồ: 0.2760 ha. Đây là số liệu GIS xấp xỉ, không thay thế diện tích pháp lý.</description><styleUrl>#new</styleUrl><Polygon><outerBoundaryIs><LinearRing><coordinates>107.7975037756,10.8101006799,0107.04751362</coordinates></LinearRing></outerBoundaryIs></Polygon></Placemark><Placemark><name>PDF lấn chiếm mới #58</name><description>Đa giác trích xuất từ màu bản đồ PDF; diện tích xấp xỉ theo độ phân giải bản đồ: 0.0710 ha. Đây là số liệu GIS xấp xỉ, không thay thế diện tích pháp lý.</description><styleUrl>#new</styleUrl><Polygon><outerBoundaryIs><LinearRing><coordinates>107.8112612205,10.8095645691,0107.06123051</coordinates></LinearRing></outerBoundaryIs></Polygon></Placemark><Placemark><name>PDF lấn chiếm mới #59</name><description>Đa giác trích xuất từ màu bản đồ PDF; diện tích xấp xỉ theo độ phân giải bản đồ: 0.2942 ha. Đây là số liệu GIS xấp xỉ, không thay thế diện tích pháp lý.</description><styleUrl>#new</styleUrl><Polygon><outerBoundaryIs><LinearRing><coordinates>107.7978346854,10.8086432204,0107.04784492</coordinates></LinearRing></outerBoundaryIs></Polygon></Placemark><Placemark><name>PDF lấn chiếm mới #60</name><description>Đa giác trích xuất từ màu bản đồ PDF; diện tích xấp xỉ theo độ phân giải bản đồ: 0.1319 ha. Đây là số liệu GIS xấp xỉ, không thay thế diện tích pháp lý.</description><styleUrl>#new</styleUrl><Polygon><outerBoundaryIs><LinearRing><coordinates>107.8109774105,10.8083487596,0107.06086453</coordinates></LinearRing></outerBoundaryIs></Polygon></Placemark><Placemark><name>PDF lấn chiếm mới #61</name><description>Đa giác trích xuất từ màu bản đồ PDF; diện tích xấp xỉ theo độ phân giải bản đồ: 1.2154 ha. Đây là số liệu GIS xấp xỉ, không thay thế diện tích pháp lý.</description><styleUrl>#new</styleUrl><Polygon><outerBoundaryIs><LinearRing><coordinates>107.8104047007,10.8081449497,0107.06004590</coordinates></LinearRing></outerBoundaryIs></Polygon></Placemark><Placemark><name>PDF lấn chiếm mới #62</name><description>Đa giác trích xuất từ màu bản đồ PDF; diện tích xấp xỉ theo độ phân giải bản đồ: 0.5458 ha. Đây là số liệu GIS xấp xỉ, không thay thế diện tích pháp lý.</description><styleUrl>#new</styleUrl><Polygon><outerBoundaryIs><LinearRing><coordinates>107.7975913954,10.8076300208,0107.04743702</coordinates></LinearRing></outerBoundaryIs></Polygon></Placemark><Placemark><name>PDF lấn chiếm mới #63</name><description>Đa giác trích xuất từ màu bản đồ PDF; diện tích xấp xỉ theo độ phân giải bản đồ: 0.1055 ha. Đây là số liệu GIS xấp xỉ, không thay thế diện tích pháp lý.</description><styleUrl>#new</styleUrl><Polygon><outerBoundaryIs><LinearRing><coordinates>107.8111021704,10.8074984099,0107.06103024</coordinates></LinearRing></outerBoundaryIs></Polygon></Placemark><Placemark><name>PDF lấn chiếm mới #64</name><description>Đa giác trích xuất từ màu bản đồ PDF; diện tích xấp xỉ theo độ phân giải bản đồ: 0.1217 ha. Đây là số liệu GIS xấp xỉ, không thay thế diện tích pháp lý.</description><styleUrl>#new</styleUrl><Polygon><outerBoundaryIs><LinearRing><coordinates>107.7928451470,10.8064040215,0107.04289603</coordinates></LinearRing></outerBoundaryIs></Polygon></Placemark><Placemark><name>PDF lấn chiếm mới #65</name><description>Đa giác trích xuất từ màu bản đồ PDF; diện tích xấp xỉ theo độ phân giải bản đồ: 0.1583 ha. Đây là số liệu GIS xấp xỉ, không thay thế diện tích pháp lý.</description><styleUrl>#new</styleUrl><Polygon><outerBoundaryIs><LinearRing><coordinates>107.7937460167,10.8063250715,0107.04383804</coordinates></LinearRing></outerBoundaryIs></Polygon></Placemark><Placemark><name>PDF lấn chiếm mới #66</name><description>Đa giác trích xuất từ màu bản đồ PDF; diện tích xấp xỉ theo độ phân giải bản đồ: 0.1786 ha. Đây là số liệu GIS xấp xỉ, không thay thế diện tích pháp lý.</description><styleUrl>#new</styleUrl><Polygon><outerBoundaryIs><LinearRing><coordinates>107.7899797981,10.8061949218,0107.03982570</coordinates></LinearRing></outerBoundaryIs></Polygon></Placemark><Placemark><name>PDF lấn chiếm mới #67</name><description>Đa giác trích xuất từ màu bản đồ PDF; diện tích xấp xỉ theo độ phân giải bản đồ: 0.1988 ha. Đây là số liệu GIS xấp xỉ, không thay thế diện tích pháp lý.</description><styleUrl>#new</styleUrl><Polygon><outerBoundaryIs><LinearRing><coordinates>107.7957528559,10.8060056015,0107.04588553</coordinates></LinearRing></outerBoundaryIs></Polygon></Placemark><Placemark><name>PDF lấn chiếm mới #68</name><description>Đa giác trích xuất từ màu bản đồ PDF; diện tích xấp xỉ theo độ phân giải bản đồ: 0.0872 ha. Đây là số liệu GIS xấp xỉ, không thay thế diện tích pháp lý.</description><styleUrl>#new</styleUrl><Polygon><outerBoundaryIs><LinearRing><coordinates>107.8107787104,10.8057154305,0107.06074800</coordinates></LinearRing></outerBoundaryIs></Polygon></Placemark><Placemark><name>PDF lấn chiếm mới #70</name><description>Đa giác trích xuất từ màu bản đồ PDF; diện tích xấp xỉ theo độ phân giải bản đồ: 0.1502 ha. Đây là số liệu GIS xấp xỉ, không thay thế diện tích pháp lý.</description><styleUrl>#new</styleUrl><Polygon><outerBoundaryIs><LinearRing><coordinates>107.8101691404,10.8037292713,0107.06005599</coordinates></LinearRing></outerBoundaryIs></Polygon></Placemark><Placemark><name>PDF lấn chiếm mới #71</name><description>Đa giác trích xuất từ màu bản đồ PDF; diện tích xấp xỉ theo độ phân giải bản đồ: 0.0487 ha. Đây là số liệu GIS xấp xỉ, không thay thế diện tích pháp lý.</description><styleUrl>#new</styleUrl><Polygon><outerBoundaryIs><LinearRing><coordinates>107.7967000454,10.8036179123,0107.04666905</coordinates></LinearRing></outerBoundaryIs></Polygon></Placemark><Placemark><name>PDF lấn chiếm mới #74</name><description>Đa giác trích xuất từ màu bản đồ PDF; diện tích xấp xỉ theo độ phân giải bản đồ: 2.1062 ha. Đây là số liệu GIS xấp xỉ, không thay thế diện tích pháp lý.</description><styleUrl>#new</styleUrl><Polygon><outerBoundaryIs><LinearRing><coordinates>107.8115216399,10.8030841914,0107.06165570</coordinates></LinearRing></outerBoundaryIs></Polygon></Placemark><Placemark><name>PDF lấn chiếm mới #76</name><description>Đa giác trích xuất từ màu bản đồ PDF; diện tích xấp xỉ theo độ phân giải bản đồ: 0.0710 ha. Đây là số liệu GIS xấp xỉ, không thay thế diện tích pháp lý.</description><styleUrl>#new</styleUrl><Polygon><outerBoundaryIs><LinearRing><coordinates>107.7978889049,10.8029320124,0107.04794017</coordinates></LinearRing></outerBoundaryIs></Polygon></Placemark><Placemark><name>PDF lấn chiếm mới #78</name><description>Đa giác trích xuất từ màu bản đồ PDF; diện tích xấp xỉ theo độ phân giải bản đồ: 0.7934 ha. Đây là số liệu GIS xấp xỉ, không thay thế diện tích pháp lý.</description><styleUrl>#new</styleUrl><Polygon><outerBoundaryIs><LinearRing><coordinates>107.8029248931,10.8027813821,0107.05285286</coordinates></LinearRing></outerBoundaryIs></Polygon></Placemark><Placemark><name>PDF lấn chiếm mới #79</name><description>Đa giác trích xuất từ màu bản đồ PDF; diện tích xấp xỉ theo độ phân giải bản đồ: 0.4647 ha. Đây là số liệu GIS xấp xỉ, không thay thế diện tích pháp lý.</description><styleUrl>#new</styleUrl><Polygon><outerBoundaryIs><LinearRing><coordinates>107.8099666604,10.8027566716,0107.05981257</coordinates></LinearRing></outerBoundaryIs></Polygon></Placemark><Placemark><name>PDF lấn chiếm mới #80</name><description>Đa giác trích xuất từ màu bản đồ PDF; diện tích xấp xỉ theo độ phân giải bản đồ: 0.0406 ha. Đây là số liệu GIS xấp xỉ, không thay thế diện tích pháp lý.</description><styleUrl>#new</styleUrl><Polygon><outerBoundaryIs><LinearRing><coordinates>107.7908479075,10.8026324030,0107.04085795</coordinates></LinearRing></outerBoundaryIs></Polygon></Placemark><Placemark><name>PDF lấn chiếm mới #81</name><description>Đa giác trích xuất từ màu bản đồ PDF; diện tích xấp xỉ theo độ phân giải bản đồ: 0.1400 ha. Đây là số liệu GIS xấp xỉ, không thay thế diện tích pháp lý.</description><styleUrl>#new</styleUrl><Polygon><outerBoundaryIs><LinearRing><coordinates>107.7881460685,10.8025451832,0107.03823866</coordinates></LinearRing></outerBoundaryIs></Polygon></Placemark><Placemark><name>PDF lấn chiếm mới #86</name><description>Đa giác trích xuất từ màu bản đồ PDF; diện tích xấp xỉ theo độ phân giải bản đồ: 0.0751 ha. Đây là số liệu GIS xấp xỉ, không thay thế diện tích pháp lý.</description><styleUrl>#new</styleUrl><Polygon><outerBoundaryIs><LinearRing><coordinates>107.7956822056,10.8011852432,0107.04569206</coordinates></LinearRing></outerBoundaryIs></Polygon></Placemark><Placemark><name>PDF lấn chiếm mới #87</name><description>Đa giác trích xuất từ màu bản đồ PDF; diện tích xấp xỉ theo độ phân giải bản đồ: 0.1096 ha. Đây là số liệu GIS xấp xỉ, không thay thế diện tích pháp lý.</description><styleUrl>#new</styleUrl><Polygon><outerBoundaryIs><LinearRing><coordinates>107.7891326280,10.8008462038,0107.03918352</coordinates></LinearRing></outerBoundaryIs></Polygon></Placemark><Placemark><name>PDF lấn chiếm mới #88</name><description>Đa giác trích xuất từ màu bản đồ PDF; diện tích xấp xỉ theo độ phân giải bản đồ: 0.8786 ha. Đây là số liệu GIS xấp xỉ, không thay thế diện tích pháp lý.</description><styleUrl>#new</styleUrl><Polygon><outerBoundaryIs><LinearRing><coordinates>107.7997773941,10.8006679631,0107.04966424</coordinates></LinearRing></outerBoundaryIs></Polygon></Placemark><Placemark><name>PDF lấn chiếm mới #90</name><description>Đa giác trích xuất từ màu bản đồ PDF; diện tích xấp xỉ theo độ phân giải bản đồ: 0.1522 ha. Đây là số liệu GIS xấp xỉ, không thay thế diện tích pháp lý.</description><styleUrl>#new</styleUrl><Polygon><outerBoundaryIs><LinearRing><coordinates>107.8154575783,10.8005815520,0107.06550846</coordinates></LinearRing></outerBoundaryIs></Polygon></Placemark><Placemark><name>PDF lấn chiếm mới #91</name><description>Đa giác trích xuất từ màu bản đồ PDF; diện tích xấp xỉ theo độ phân giải bản đồ: 0.0771 ha. Đây là số liệu GIS xấp xỉ, không thay thế diện tích pháp lý.</description><styleUrl>#new</styleUrl><Polygon><outerBoundaryIs><LinearRing><coordinates>107.8165221879,10.8005029020,0107.06653205</coordinates></LinearRing></outerBoundaryIs></Polygon></Placemark><Placemark><name>PDF lấn chiếm mới #92</name><description>Đa giác trích xuất từ màu bản đồ PDF; diện tích xấp xỉ theo độ phân giải bản đồ: 0.3429 ha. Đây là số liệu GIS xấp xỉ, không thay thế diện tích pháp lý.</description><styleUrl>#new</styleUrl><Polygon><outerBoundaryIs><LinearRing><coordinates>107.8144360986,10.7996881624,0107.06444651</coordinates></LinearRing></outerBoundaryIs></Polygon></Placemark><Placemark><name>PDF lấn chiếm mới #93</name><description>Đa giác trích xuất từ màu bản đồ PDF; diện tích xấp xỉ theo độ phân giải bản đồ: 0.1096 ha. Đây là số liệu GIS xấp xỉ, không thay thế diện tích pháp lý.</description><styleUrl>#new</styleUrl><Polygon><outerBoundaryIs><LinearRing><coordinates>107.8155428481,10.7990830226,0107.06555289</coordinates></LinearRing></outerBoundaryIs></Polygon></Placemark><Placemark><name>PDF lấn chiếm mới #94</name><description>Đa giác trích xuất từ màu bản đồ PDF; diện tích xấp xỉ theo độ phân giải bản đồ: 0.6696 ha. Đây là số liệu GIS xấp xỉ, không thay thế diện tích pháp lý.</description><styleUrl>#new</styleUrl><Polygon><outerBoundaryIs><LinearRing><coordinates>107.8175084074,10.7988848325,0107.06727290</coordinates></LinearRing></outerBoundaryIs></Polygon></Placemark><Placemark><name>PDF lấn chiếm mới #95</name><description>Đa giác trích xuất từ màu bản đồ PDF; diện tích xấp xỉ theo độ phân giải bản đồ: 0.2536 ha. Đây là số liệu GIS xấp xỉ, không thay thế diện tích pháp lý.</description><styleUrl>#new</styleUrl><Polygon><outerBoundaryIs><LinearRing><coordinates>107.8142340686,10.7985130329,0107.06399820</coordinates></LinearRing></outerBoundaryIs></Polygon></Placemark><Placemark><name>PDF lấn chiếm mới #96</name><description>Đa giác trích xuất từ màu bản đồ PDF; diện tích xấp xỉ theo độ phân giải bản đồ: 0.1988 ha. Đây là số liệu GIS xấp xỉ, không thay thế diện tích pháp lý.</description><styleUrl>#new</styleUrl><Polygon><outerBoundaryIs><LinearRing><coordinates>107.7893850277,10.7979708648,0107.03939593</coordinates></LinearRing></outerBoundaryIs></Polygon></Placemark><Placemark><name>PDF lấn chiếm mới #97</name><description>Đa giác trích xuất từ màu bản đồ PDF; diện tích xấp xỉ theo độ phân giải bản đồ: 0.8076 ha. Đây là số liệu GIS xấp xỉ, không thay thế diện tích pháp lý.</description><styleUrl>#new</styleUrl><Polygon><outerBoundaryIs><LinearRing><coordinates>107.8119027293,10.7975357134,0107.06191268</coordinates></LinearRing></outerBoundaryIs></Polygon></Placemark><Placemark><name>PDF lấn chiếm mới #99</name><description>Đa giác trích xuất từ màu bản đồ PDF; diện tích xấp xỉ theo độ phân giải bản đồ: 0.4667 ha. Đây là số liệu GIS xấp xỉ, không thay thế diện tích pháp lý.</description><styleUrl>#new</styleUrl><Polygon><outerBoundaryIs><LinearRing><coordinates>107.8077305408,10.7959466642,0107.05761777</coordinates></LinearRing></outerBoundaryIs></Polygon></Placemark><Placemark><name>PDF lấn chiếm mới #100</name><description>Đa giác trích xuất từ màu bản đồ PDF; diện tích xấp xỉ theo độ phân giải bản đồ: 1.1931 ha. Đây là số liệu GIS xấp xỉ, không thay thế diện tích pháp lý.</description><styleUrl>#new</styleUrl><Polygon><outerBoundaryIs><LinearRing><coordinates>107.8110058496,10.7958729640,0107.06093392</coordinates></LinearRing></outerBoundaryIs></Polygon></Placemark><Placemark><name>PDF lấn chiếm mới #101</name><description>Đa giác trích xuất từ màu bản đồ PDF; diện tích xấp xỉ theo độ phân giải bản đồ: 0.2313 ha. Đây là số liệu GIS xấp xỉ, không thay thế diện tích pháp lý.</description><styleUrl>#new</styleUrl><Polygon><outerBoundaryIs><LinearRing><coordinates>107.7888579578,10.7957823456,0107.03886886</coordinates></LinearRing></outerBoundaryIs></Polygon></Placemark><Placemark><name>PDF lấn chiếm mới #103</name><description>Đa giác trích xuất từ màu bản đồ PDF; diện tích xấp xỉ theo độ phân giải bản đồ: 0.2678 ha. Đây là số liệu GIS xấp xỉ, không thay thế diện tích pháp lý.</description><styleUrl>#new</styleUrl><Polygon><outerBoundaryIs><LinearRing><coordinates>107.8086745504,10.7948956245,0107.05868440</coordinates></LinearRing></outerBoundaryIs></Polygon></Placemark><Placemark><name>PDF lấn chiếm mới #104</name><description>Đa giác trích xuất từ màu bản đồ PDF; diện tích xấp xỉ theo độ phân giải bản đồ: 0.1339 ha. Đây là số liệu GIS xấp xỉ, không thay thế diện tích pháp lý.</description><styleUrl>#new</styleUrl><Polygon><outerBoundaryIs><LinearRing><coordinates>107.7891119674,10.7922184069,0107.03912259</coordinates></LinearRing></outerBoundaryIs></Polygon></Placemark><Placemark><name>PDF lấn chiếm mới #106</name><description>Đa giác trích xuất từ màu bản đồ PDF; diện tích xấp xỉ theo độ phân giải bản đồ: 0.1157 ha. Đây là số liệu GIS xấp xỉ, không thay thế diện tích pháp lý.</description><styleUrl>#new</styleUrl><Polygon><outerBoundaryIs><LinearRing><coordinates>107.7948050552,10.7910972669,0107.04473284</coordinates></LinearRing></outerBoundaryIs></Polygon></Placemark><Placemark><name>PDF lấn chiếm mới #109</name><description>Đa giác trích xuất từ màu bản đồ PDF; diện tích xấp xỉ theo độ phân giải bản đồ: 0.2009 ha. Đây là số liệu GIS xấp xỉ, không thay thế diện tích pháp lý.</description><styleUrl>#new</styleUrl><Polygon><outerBoundaryIs><LinearRing><coordinates>107.7900590669,10.7898712376,0107.04015156</coordinates></LinearRing></outerBoundaryIs></Polygon></Placemark><Placemark><name>PDF lấn chiếm mới #110</name><description>Đa giác trích xuất từ màu bản đồ PDF; diện tích xấp xỉ theo độ phân giải bản đồ: 0.2191 ha. Đây là số liệu GIS xấp xỉ, không thay thế diện tích pháp lý.</description><styleUrl>#new</styleUrl><Polygon><outerBoundaryIs><LinearRing><coordinates>107.7972246542,10.7892800074,0107.04723535</coordinates></LinearRing></outerBoundaryIs></Polygon></Placemark><Placemark><name>PDF lấn chiếm mới #115</name><description>Đa giác trích xuất từ màu bản đồ PDF; diện tích xấp xỉ theo độ phân giải bản đồ: 0.1116 ha. Đây là số liệu GIS xấp xỉ, không thay thế diện tích pháp lý.</description><styleUrl>#new</styleUrl><Polygon><outerBoundaryIs><LinearRing><coordinates>107.7896947169,10.7881286483,0107.03970523</coordinates></LinearRing></outerBoundaryIs></Polygon></Placemark><Placemark><name>PDF lấn chiếm mới #116</name><description>Đa giác trích xuất từ màu bản đồ PDF; diện tích xấp xỉ theo độ phân giải bản đồ: 0.0893 ha. Đây là số liệu GIS xấp xỉ, không thay thế diện tích pháp lý.</description><styleUrl>#new</styleUrl><Polygon><outerBoundaryIs><LinearRing><coordinates>107.7960403645,10.7880216279,0107.04596816</coordinates></LinearRing></outerBoundaryIs></Polygon></Placemark><Placemark><name>PDF lấn chiếm mới #117</name><description>Đa giác trích xuất từ màu bản đồ PDF; diện tích xấp xỉ theo độ phân giải bản đồ: 0.0751 ha. Đây là số liệu GIS xấp xỉ, không thay thế diện tích pháp lý.</description><styleUrl>#new</styleUrl><Polygon><outerBoundaryIs><LinearRing><coordinates>107.7896966168,10.7873185386,0107.03962440</coordinates></LinearRing></outerBoundaryIs></Polygon></Placemark><Placemark><name>PDF lấn chiếm mới #118</name><description>Đa giác trích xuất từ màu bản đồ PDF; diện tích xấp xỉ theo độ phân giải bản đồ: 0.0670 ha. Đây là số liệu GIS xấp xỉ, không thay thế diện tích pháp lý.</description><styleUrl>#new</styleUrl><Polygon><outerBoundaryIs><LinearRing><coordinates>107.7905974365,10.7872395885,0107.04044325</coordinates></LinearRing></outerBoundaryIs></Polygon></Placemark><Placemark><name>PDF lấn chiếm mới #119</name><description>Đa giác trích xuất từ màu bản đồ PDF; diện tích xấp xỉ theo độ phân giải bản đồ: 0.1623 ha. Đây là số liệu GIS xấp xỉ, không thay thế diện tích pháp lý.</description><styleUrl>#new</styleUrl><Polygon><outerBoundaryIs><LinearRing><coordinates>107.7924394458,10.7873248184,0107.04240855</coordinates></LinearRing></outerBoundaryIs></Polygon></Placemark></Folder></Document></kml>